ONEWEB-0086             
1 45456U 20020AJ  23277.86283610 -.00001559  00000+0 -44346-2 0  9997
2 45456  87.8981 216.9852 0002448  81.2643 278.8762 13.11425632173337
ONEWEB-0088             
1 45457U 20020AK  23277.91637840  .00006024  00000+0  16962-1 0  9994
2 45457  87.8974 216.9553 0002022  79.4530 280.6826 13.11372518173279
ONEWEB-0102             
1 47258U 20100A   23278.00664893 -.00000418  00000+0 -11980-2 0  9992
2 47258  87.9075 186.7498 0001834  63.3309 296.8007 13.12440965135373
ONEWEB-0109             
1 47259U 20100B   23277.78853310 -.00000225  00000+0 -66144-3 0  9990
2 47259  87.9007 186.7806 0001881  73.8199 286.3136 13.12444445135179
ONEWEB-0110             
1 47260U 20100C   23277.81183539  .00000466  00000+0  12613-2 0  9991
2 47260  87.9073 186.7706 0001918  67.6955 292.4377 13.12443731135346
ONEWEB-0111             
1 47261U 20100D   23278.45349497 -.00000086  00000+0 -27517-3 0  9990
2 47261  87.9068 186.6327 0001813  69.4661 290.6662 13.12439270135268
ONEWEB-0114             
1 47262U 20100E   23277.79913003  .00000123  00000+0  30542-3 0  9999
2 47262  87.9072 186.7833 0001376  59.5240 300.6024 13.12445066135134
ONEWEB-0117             
1 47263U 20100F   23278.24806997 -.00000232  00000+0 -67942-3 0  9991
2 47263  87.9009 186.7000 0001882  74.2964 285.8372 13.12443685135203
